{
  "type": "FeatureCollection",
  "features": [
    {
      "type": "Feature",
      "properties": {
        "norad_id": 66588,
        "name": "STARLINK-36076",
        "group": "last-30-days",
        "lat": 39.97957324289505,
        "lon": -147.22558583163453,
        "alt_km": 438.9311365101694,
        "timestamp": "2025-12-20T09:36:00.351022+00:00",
        "meta_object_name": "STARLINK-36076",
        "meta_object_id": "2025-270A",
        "meta_epoch": "2025-12-19T19:17:34.645344",
        "meta_mean_motion": 15.4070464,
        "meta_eccentricity": 0.00021308,
        "meta_inclination": 42.9989,
        "meta_ra_of_asc_node": 152.0729,
        "meta_arg_of_pericenter": 265.6518,
        "meta_mean_anomaly": 94.4095,
        "meta_ephemeris_type": 0,
        "meta_classification_type": "U",
        "meta_norad_cat_id": 66588,
        "meta_element_set_no": 999,
        "meta_rev_at_epoch": 543,
        "meta_bstar": 0.00072750808,
        "meta_mean_motion_dot": 0.00030212,
        "meta_mean_motion_ddot": 0,
        "tle_line1": "1 66588U 25270A   25353.80387321  .00030212  00000+0  72751-3 0  9991",
        "tle_line2": "2 66588  42.9989 152.0729 0002130 265.6518  94.4095 15.40704640  5435"
      },
      "geometry": {
        "type": "Point",
        "coordinates": [
          -147.22558583163453,
          39.97957324289505
        ]
      }
    },
    {
      "type": "Feature",
      "properties": {
        "norad_id": 66589,
        "name": "STARLINK-35447",
        "group": "last-30-days",
        "lat": 6.781445308926307,
        "lon": -38.93389364658462,
        "alt_km": 443.287480629906,
        "timestamp": "2025-12-20T09:36:00.351035+00:00",
        "meta_object_name": "STARLINK-35447",
        "meta_object_id": "2025-270B",
        "meta_epoch": "2025-12-20T00:00:02.000160",
        "meta_mean_motion": 15.40681269,
        "meta_eccentricity": 0.0001453,
        "meta_inclination": 42.9997,
        "meta_ra_of_asc_node": 150.7032,
        "meta_arg_of_pericenter": 283.5937,
        "meta_mean_anomaly": 185.2289,
        "meta_ephemeris_type": 0,
        "meta_classification_type": "U",
        "meta_norad_cat_id": 66589,
        "meta_element_set_no": 999,
        "meta_rev_at_epoch": 567,
        "meta_bstar": 0.00095922,
        "meta_mean_motion_dot": 0.0003995,
        "meta_mean_motion_ddot": 0,
        "tle_line1": "1 66589U 25270B   25354.00002315  .00039950  00000+0  95922-3 0  9995",
        "tle_line2": "2 66589  42.9997 150.7032 0001453 283.5937 185.2289 15.40681269  5679"
      },
      "geometry": {
        "type": "Point",
        "coordinates": [
          -38.93389364658462,
          6.781445308926307
        ]
      }
    },
    {
      "type": "Feature",
      "properties": {
        "norad_id": 66590,
        "name": "STARLINK-35429",
        "group": "last-30-days",
        "lat": -41.636176548269454,
        "lon": 40.73456778640242,
        "alt_km": 446.2820695190021,
        "timestamp": "2025-12-20T09:36:00.351046+00:00",
        "meta_object_name": "STARLINK-35429",
        "meta_object_id": "2025-270C",
        "meta_epoch": "2025-12-20T04:00:00.999072",
        "meta_mean_motion": 15.40703893,
        "meta_eccentricity": 0.0001702,
        "meta_inclination": 43.0003,
        "meta_ra_of_asc_node": 149.5309,
        "meta_arg_of_pericenter": 277.2686,
        "meta_mean_anomaly": 124.0796,
        "meta_ephemeris_type": 0,
        "meta_classification_type": "U",
        "meta_norad_cat_id": 66590,
        "meta_element_set_no": 999,
        "meta_rev_at_epoch": 570,
        "meta_bstar": -0.00015334,
        "meta_mean_motion_dot": -6.704e-05,
        "meta_mean_motion_ddot": 0,
        "tle_line1": "1 66590U 25270C   25354.16667823 -.00006704  00000+0 -15334-3 0  9997",
        "tle_line2": "2 66590  43.0003 149.5309 0001702 277.2686 124.0796 15.40703893  5708"
      },
      "geometry": {
        "type": "Point",
        "coordinates": [
          40.73456778640242,
          -41.636176548269454
        ]
      }
    },
    {
      "type": "Feature",
      "properties": {
        "norad_id": 66591,
        "name": "STARLINK-36058",
        "group": "last-30-days",
        "lat": -12.278762838916622,
        "lon": 134.47471691309147,
        "alt_km": 437.6872726624333,
        "timestamp": "2025-12-20T09:36:00.351056+00:00",
        "meta_object_name": "STARLINK-36058",
        "meta_object_id": "2025-270D",
        "meta_epoch": "2025-12-20T04:00:00.999072",
        "meta_mean_motion": 15.44132264,
        "meta_eccentricity": 0.0001512,
        "meta_inclination": 43.0002,
        "meta_ra_of_asc_node": 149.3324,
        "meta_arg_of_pericenter": 284.1589,
        "meta_mean_anomaly": 199.5948,
        "meta_ephemeris_type": 0,
        "meta_classification_type": "U",
        "meta_norad_cat_id": 66591,
        "meta_element_set_no": 999,
        "meta_rev_at_epoch": 559,
        "meta_bstar": -0.048618,
        "meta_mean_motion_dot": -0.02028399,
        "meta_mean_motion_ddot": 0,
        "tle_line1": "1 66591U 25270D   25354.16667823 -.02028399  00000+0 -48618-1 0  9993",
        "tle_line2": "2 66591  43.0002 149.3324 0001512 284.1589 199.5948 15.44132264  5596"
      },
      "geometry": {
        "type": "Point",
        "coordinates": [
          134.47471691309147,
          -12.278762838916622
        ]
      }
    },
    {
      "type": "Feature",
      "properties": {
        "norad_id": 66592,
        "name": "STARLINK-36066",
        "group": "last-30-days",
        "lat": 35.96436707807234,
        "lon": -82.62653929931365,
        "alt_km": 438.86686112955886,
        "timestamp": "2025-12-20T09:36:00.351067+00:00",
        "meta_object_name": "STARLINK-36066",
        "meta_object_id": "2025-270E",
        "meta_epoch": "2025-12-19T03:31:08.236704",
        "meta_mean_motion": 15.40718174,
        "meta_eccentricity": 0.00012951,
        "meta_inclination": 42.9987,
        "meta_ra_of_asc_node": 155.7395,
        "meta_arg_of_pericenter": 272.062,
        "meta_mean_anomaly": 88.0088,
        "meta_ephemeris_type": 0,
        "meta_classification_type": "U",
        "meta_norad_cat_id": 66592,
        "meta_element_set_no": 999,
        "meta_rev_at_epoch": 523,
        "meta_bstar": 0.00069686524,
        "meta_mean_motion_dot": 0.00028934,
        "meta_mean_motion_ddot": 0,
        "tle_line1": "1 66592U 25270E   25353.14662311  .00028934  00000+0  69687-3 0  9990",
        "tle_line2": "2 66592  42.9987 155.7395 0001295 272.0620  88.0088 15.40718174  5230"
      },
      "geometry": {
        "type": "Point",
        "coordinates": [
          -82.62653929931365,
          35.96436707807234
        ]
      }
    },
    {
      "type": "Feature",
      "properties": {
        "norad_id": 66593,
        "name": "STARLINK-36031",
        "group": "last-30-days",
        "lat": -18.245815245655958,
        "lon": -10.973896870579992,
        "alt_km": 445.3272348993114,
        "timestamp": "2025-12-20T09:36:00.351079+00:00",
        "meta_object_name": "STARLINK-36031",
        "meta_object_id": "2025-270F",
        "meta_epoch": "2025-12-20T00:00:02.000160",
        "meta_mean_motion": 15.4068271,
        "meta_eccentricity": 0.0001727,
        "meta_inclination": 42.9996,
        "meta_ra_of_asc_node": 150.6127,
        "meta_arg_of_pericenter": 270.7135,
        "meta_mean_anomaly": 235.4296,
        "meta_ephemeris_type": 0,
        "meta_classification_type": "U",
        "meta_norad_cat_id": 66593,
        "meta_element_set_no": 999,
        "meta_rev_at_epoch": 556,
        "meta_bstar": 0.0009194,
        "meta_mean_motion_dot": 0.00038273,
        "meta_mean_motion_ddot": 0,
        "tle_line1": "1 66593U 25270F   25354.00002315  .00038273  00000+0  91940-3 0  9993",
        "tle_line2": "2 66593  42.9996 150.6127 0001727 270.7135 235.4296 15.40682710  5565"
      },
      "geometry": {
        "type": "Point",
        "coordinates": [
          -10.973896870579992,
          -18.245815245655958
        ]
      }
    },
    {
      "type": "Feature",
      "properties": {
        "norad_id": 66594,
        "name": "STARLINK-36032",
        "group": "last-30-days",
        "lat": -33.143417478898755,
        "lon": 103.57746855117033,
        "alt_km": 446.3229553137371,
        "timestamp": "2025-12-20T09:36:00.351090+00:00",
        "meta_object_name": "STARLINK-36032",
        "meta_object_id": "2025-270G",
        "meta_epoch": "2025-12-20T04:00:00.999072",
        "meta_mean_motion": 15.40675357,
        "meta_eccentricity": 0.0001582,
        "meta_inclination": 42.9998,
        "meta_ra_of_asc_node": 149.4078,
        "meta_arg_of_pericenter": 254.7234,
        "meta_mean_anomaly": 196.3334,
        "meta_ephemeris_type": 0,
        "meta_classification_type": "U",
        "meta_norad_cat_id": 66594,
        "meta_element_set_no": 999,
        "meta_rev_at_epoch": 533,
        "meta_bstar": 8.3224e-05,
        "meta_mean_motion_dot": 3.172e-05,
        "meta_mean_motion_ddot": 0,
        "tle_line1": "1 66594U 25270G   25354.16667823  .00003172  00000+0  83224-4 0  9999",
        "tle_line2": "2 66594  42.9998 149.4078 0001582 254.7234 196.3334 15.40675357  5332"
      },
      "geometry": {
        "type": "Point",
        "coordinates": [
          103.57746855117033,
          -33.143417478898755
        ]
      }
    }
  ]
}